{
  "type": "FeatureCollection",
  "features": [
    {
      "type": "Feature",
      "properties": {
        "norad_id": 40115,
        "name": "WORLDVIEW-3 (WV-3)",
        "group": "resource",
        "lat": 68.09247981319608,
        "lon": -103.68913578985917,
        "alt_km": 605.0617611514517,
        "timestamp": "2025-12-09T21:34:11.064123+00:00",
        "meta_object_name": "WORLDVIEW-3 (WV-3)",
        "meta_object_id": "2014-048A",
        "meta_epoch": "2025-12-09T14:36:26.920224",
        "meta_mean_motion": 14.85500269,
        "meta_eccentricity": 0.00045136,
        "meta_inclination": 97.8619,
        "meta_ra_of_asc_node": 55.9283,
        "meta_arg_of_pericenter": 195.4086,
        "meta_mean_anomaly": 164.6992,
        "meta_ephemeris_type": 0,
        "meta_classification_type": "U",
        "meta_norad_cat_id": 40115,
        "meta_element_set_no": 999,
        "meta_rev_at_epoch": 61377,
        "meta_bstar": 0.00024559787,
        "meta_mean_motion_dot": 2.067e-05,
        "meta_mean_motion_ddot": 0,
        "tle_line1": "1 40115U 14048A   25343.60864491  .00002067  00000+0  24560-3 0  9997",
        "tle_line2": "2 40115  97.8619  55.9283 0004513 195.4086 164.6992 14.85500269613772"
      },
      "geometry": {
        "type": "Point",
        "coordinates": [
          -103.68913578985917,
          68.09247981319608
        ]
      }
    },
    {
      "type": "Feature",
      "properties": {
        "norad_id": 40118,
        "name": "GAOFEN-2",
        "group": "resource",
        "lat": -22.004109087706837,
        "lon": 46.33595230543219,
        "alt_km": 637.49011749071,
        "timestamp": "2025-12-09T21:34:11.064134+00:00",
        "meta_object_name": "GAOFEN-2",
        "meta_object_id": "2014-049A",
        "meta_epoch": "2025-12-09T15:10:56.089632",
        "meta_mean_motion": 14.8059978,
        "meta_eccentricity": 0.00084254,
        "meta_inclination": 98.0384,
        "meta_ra_of_asc_node": 42.7955,
        "meta_arg_of_pericenter": 121.202,
        "meta_mean_anomaly": 239.0019,
        "meta_ephemeris_type": 0,
        "meta_classification_type": "U",
        "meta_norad_cat_id": 40118,
        "meta_element_set_no": 999,
        "meta_rev_at_epoch": 61118,
        "meta_bstar": 0.00014198392,
        "meta_mean_motion_dot": 1.036e-05,
        "meta_mean_motion_ddot": 0,
        "tle_line1": "1 40118U 14049A   25343.63259363  .00001036  00000+0  14198-3 0  9991",
        "tle_line2": "2 40118  98.0384  42.7955 0008425 121.2020 239.0019 14.80599780611189"
      },
      "geometry": {
        "type": "Point",
        "coordinates": [
          46.33595230543219,
          -22.004109087706837
        ]
      }
    },
    {
      "type": "Feature",
      "properties": {
        "norad_id": 40143,
        "name": "YAOGAN-21",
        "group": "resource",
        "lat": -41.69679609126582,
        "lon": -159.1092574270684,
        "alt_km": 508.37009221885,
        "timestamp": "2025-12-09T21:34:11.064144+00:00",
        "meta_object_name": "YAOGAN-21",
        "meta_object_id": "2014-053A",
        "meta_epoch": "2025-12-09T14:17:38.067072",
        "meta_mean_motion": 15.23623426,
        "meta_eccentricity": 0.00099824,
        "meta_inclination": 97.1754,
        "meta_ra_of_asc_node": 27.0448,
        "meta_arg_of_pericenter": 50.5511,
        "meta_mean_anomaly": 309.6608,
        "meta_ephemeris_type": 0,
        "meta_classification_type": "U",
        "meta_norad_cat_id": 40143,
        "meta_element_set_no": 999,
        "meta_rev_at_epoch": 62606,
        "meta_bstar": 0.00046718457,
        "meta_mean_motion_dot": 0.00011145,
        "meta_mean_motion_ddot": 0,
        "tle_line1": "1 40143U 14053A   25343.59557948  .00011145  00000+0  46718-3 0  9994",
        "tle_line2": "2 40143  97.1754  27.0448 0009982  50.5511 309.6608 15.23623426626063"
      },
      "geometry": {
        "type": "Point",
        "coordinates": [
          -159.1092574270684,
          -41.69679609126582
        ]
      }
    },
    {
      "type": "Feature",
      "properties": {
        "norad_id": 40275,
        "name": "YAOGAN-22",
        "group": "resource",
        "lat": 21.543181153917484,
        "lon": 122.98042043619684,
        "alt_km": 1204.129386908001,
        "timestamp": "2025-12-09T21:34:11.064154+00:00",
        "meta_object_name": "YAOGAN-22",
        "meta_object_id": "2014-063A",
        "meta_epoch": "2025-12-09T15:58:57.912384",
        "meta_mean_motion": 13.15522508,
        "meta_eccentricity": 0.0005932,
        "meta_inclination": 100.742,
        "meta_ra_of_asc_node": 127.0421,
        "meta_arg_of_pericenter": 255.7153,
        "meta_mean_anomaly": 104.33,
        "meta_ephemeris_type": 0,
        "meta_classification_type": "U",
        "meta_norad_cat_id": 40275,
        "meta_element_set_no": 999,
        "meta_rev_at_epoch": 53489,
        "meta_bstar": 0.00012180864,
        "meta_mean_motion_dot": -1e-08,
        "meta_mean_motion_ddot": 0,
        "tle_line1": "1 40275U 14063A   25343.66594806 -.00000001  00000+0  12181-3 0  9990",
        "tle_line2": "2 40275 100.7420 127.0421 0005932 255.7153 104.3300 13.15522508534890"
      },
      "geometry": {
        "type": "Point",
        "coordinates": [
          122.98042043619684,
          21.543181153917484
        ]
      }
    },
    {
      "type": "Feature",
      "properties": {
        "norad_id": 40298,
        "name": "ASNARO",
        "group": "resource",
        "lat": -46.87477156105934,
        "lon": 67.85259107754709,
        "alt_km": 518.2020625042787,
        "timestamp": "2025-12-09T21:34:11.064164+00:00",
        "meta_object_name": "ASNARO",
        "meta_object_id": "2014-070A",
        "meta_epoch": "2025-12-09T15:27:20.827584",
        "meta_mean_motion": 15.19391452,
        "meta_eccentricity": 0.00053775,
        "meta_inclination": 97.3649,
        "meta_ra_of_asc_node": 59.6663,
        "meta_arg_of_pericenter": 129.7889,
        "meta_mean_anomaly": 230.382,
        "meta_ephemeris_type": 0,
        "meta_classification_type": "U",
        "meta_norad_cat_id": 40298,
        "meta_element_set_no": 999,
        "meta_rev_at_epoch": 61522,
        "meta_bstar": 0.00074037541,
        "meta_mean_motion_dot": 0.00015628,
        "meta_mean_motion_ddot": 0,
        "tle_line1": "1 40298U 14070A   25343.64399106  .00015628  00000+0  74038-3 0  9996",
        "tle_line2": "2 40298  97.3649  59.6663 0005377 129.7889 230.3820 15.19391452615228"
      },
      "geometry": {
        "type": "Point",
        "coordinates": [
          67.85259107754709,
          -46.87477156105934
        ]
      }
    },
    {
      "type": "Feature",
      "properties": {
        "norad_id": 40310,
        "name": "YAOGAN-24",
        "group": "resource",
        "lat": 6.611397472256518,
        "lon": 114.02839052041007,
        "alt_km": 651.363883767609,
        "timestamp": "2025-12-09T21:34:11.064174+00:00",
        "meta_object_name": "YAOGAN-24",
        "meta_object_id": "2014-072A",
        "meta_epoch": "2025-12-09T15:01:56.062848",
        "meta_mean_motion": 14.76167747,
        "meta_eccentricity": 0.00145978,
        "meta_inclination": 98.1225,
        "meta_ra_of_asc_node": 114.7031,
        "meta_arg_of_pericenter": 147.3987,
        "meta_mean_anomaly": 212.8126,
        "meta_ephemeris_type": 0,
        "meta_classification_type": "U",
        "meta_norad_cat_id": 40310,
        "meta_element_set_no": 999,
        "meta_rev_at_epoch": 59575,
        "meta_bstar": 0.00025519317,
        "meta_mean_motion_dot": 1.714e-05,
        "meta_mean_motion_ddot": 0,
        "tle_line1": "1 40310U 14072A   25343.62634332  .00001714  00000+0  25519-3 0  9995",
        "tle_line2": "2 40310  98.1225 114.7031 0014597 147.3987 212.8126 14.76167747595752"
      },
      "geometry": {
        "type": "Point",
        "coordinates": [
          114.02839052041007,
          6.611397472256518
        ]
      }
    },
    {
      "type": "Feature",
      "properties": {
        "norad_id": 40336,
        "name": "CBERS 4",
        "group": "resource",
        "lat": 17.081280104432395,
        "lon": -135.40675174023846,
        "alt_km": 773.093920045867,
        "timestamp": "2025-12-09T21:34:11.064184+00:00",
        "meta_object_name": "CBERS 4",
        "meta_object_id": "2014-079A",
        "meta_epoch": "2025-12-09T15:47:46.499712",
        "meta_mean_motion": 14.35516076,
        "meta_eccentricity": 0.00015725,
        "meta_inclination": 98.3308,
        "meta_ra_of_asc_node": 41.7803,
        "meta_arg_of_pericenter": 114.6579,
        "meta_mean_anomaly": 245.4771,
        "meta_ephemeris_type": 0,
        "meta_classification_type": "U",
        "meta_norad_cat_id": 40336,
        "meta_element_set_no": 999,
        "meta_rev_at_epoch": 57676,
        "meta_bstar": 9.9715748e-05,
        "meta_mean_motion_dot": 2.45e-06,
        "meta_mean_motion_ddot": 0,
        "tle_line1": "1 40336U 14079A   25343.65817708  .00000245  00000+0  99716-4 0  9992",
        "tle_line2": "2 40336  98.3308  41.7803 0001572 114.6579 245.4771 14.35516076576769"
      },
      "geometry": {
        "type": "Point",
        "coordinates": [
          -135.40675174023846,
          17.081280104432395
        ]
      }
    }
  ]
}